ORBCOMM FM115           
1 41186U 15081H   23322.51717395  .00000811  00000+0  20253-3 0  9999
2 41186  46.9996 256.7464 0001317 295.7026  64.3724 14.60105891423439
ORBCOMM FM108           
1 41187U 15081J   23322.69362326  .00000875  00000+0  23449-3 0  9999
2 41187  47.0057 304.7678 0002327 211.0589 149.0159 14.56038584422800
ORBCOMM FM117           
1 41188U 15081K   23322.31632089  .00000913  00000+0  24299-3 0  9992
2 41188  47.0018 305.4964 0003062 217.7010 142.3661 14.56038262422710
ORBCOMM FM116           
1 41189U 15081L   23322.58041307  .00000936  00000+0  24814-3 0  9997
2 41189  47.0033  34.0603 0003061 281.3071  78.7470 14.56054480421568
